QIANFAN-65              
1 62795U 25016L   26019.28107237  .00000167  00000+0  24050-3 0  9998
2 62795  88.9746  99.1797 0012899 227.7482 132.2576 13.50984441 52312
QIANFAN-66              
1 62796U 25016M   26019.23576845  .00000160  00000+0  22868-3 0  9997
2 62796  88.9766  99.1619 0014133 223.7519 136.2513 13.50989254 52354
QIANFAN-67              
1 62797U 25016N   26019.23989913  .00000174  00000+0  25026-3 0  9996
2 62797  88.9756  99.1833 0013893 231.1013 128.8900 13.50993536 52328
QIANFAN-68              
1 62798U 25016P   26019.23165779  .00000164  00000+0  23613-3 0  9992
2 62798  88.9760  99.2307 0014007 229.2720 130.7216 13.50985451 52309
QIANFAN-69              
1 62799U 25016Q   26019.24810720  .00000166  00000+0  23792-3 0  9997
2 62799  88.9739  99.0903 0014708 230.7022 129.2826 13.50985819 52348
QIANFAN-70              
1 62800U 25016R   26019.26462929  .00000149  00000+0  21209-3 0  9998
2 62800  88.9759  99.2351 0014609 220.2791 139.7279 13.50989594 52307
QIANFAN-71              
1 62801U 25016S   26019.26043544  .00000151  00000+0  21518-3 0  9993
2 62801  88.9754  99.2127 0014524 234.4353 125.5445 13.50988968 52303
QIANFAN-72              
1 62802U 25016T   26019.27688370  .00000154  00000+0  22047-3 0  9998
2 62802  88.9744  99.2207 0017591 243.1535 116.7818 13.50988829 52298
